#dP2024  4 23  6  0  0.00000000      96 __u+U IGS20 EXT  IAC
## 2311 194400.00000000   900.00000000 60423 0.2500000000000
+  118   C06C07C08C09C10C11C12C13C14C16C19C20C21C22C23C24C25
+        C26C27C28C29C30C32C33C34C35C36C37C38C39C40C41C42C43
+        C44C45C46E02E03E04E05E07E08E09E10E11E12E13E14E15E19
+        E21E24E25E26E27E30E31E33E34E36G02G03G04G05G06G07G08
+        G09G10G11G12G13G14G15G16G17G18G19G20G21G22G23G24G25
+        G26G27G28G29G30G31G32J02J03J04R01R02R03R04R05R07R08
+        R09R11R12R13R14R15R16R17R18R19R20R21R22R24R25R26  0
++        10  9  8  9 10  9 10  8  9 10  8  8  8  8  8  8  9
++         8  9 10  9 10  9  9  7  8  8  8  8 10 10  9  8  8
++         8  9  8  8  8  8  8  7  8  7  8  8  8  8  8  8  8
++         9  7  7  8  8  7  8  8  8  8  8  8  8  8  8  8  7
++         8  7  9  8  8  7  7  7  7  8  7  8  8  9  7  7  8
++         7  7  7  8  8  8  8  9 10  0  8  8  8  9  7  8  8
++         8  8 10 10 10  9  7  8  7  8  8  8  8  8  8  8  0
%c M  cc GPS ccc cccc cccc cccc cccc ccccc ccccc ccccc ccccc
%c cc cc ccc ccc cccc cccc cccc cccc ccccc ccccc ccccc ccccc
%f  0.0000000  0.000000000  0.00000000000  0.000000000000000
%f  0.0000000  0.000000000  0.00000000000  0.000000000000000
%i    0    0    0    0      0      0      0      0         0
%i    0    0    0    0      0      0      0      0         0
/* IAC                                ULTRA-RAPID PREDICTION
/* S/V CLOCKS ARE ALIGNED TO GNSS TIME                      
/* G:C1WC2W R:C1PC2P E:C1XC5X C:C2IC6I J:C1CC2S             
/* PCV:IGS20_2290 OL/AL:FES2004  NONE     YN ORB:CoN CLK:CoN
*  2024 04 24  3  0  0.00000000
PC06  -6715.965110  40877.630150  -6839.462901    369.812223
PC07  -7050.891554  27036.038354  31677.784745   -792.277305
PC08 -20991.924957  27448.089351 -24312.857313    -52.213777
PC09  -3687.181807  41652.359736     49.642108   -805.265453
PC10   2614.424745  29738.599329  30254.054152     75.940455
PC11  16298.577768   2437.231751 -22459.300151    527.765002
PC12  14331.283563  21160.154668 -11173.662214   -236.304260
PC13 -13213.079729  28139.080607 -28454.311695    432.632853
PC14  27329.833386   1627.107213   5599.004569    717.450077
PC16  -9830.418048  38967.742009 -11863.789659   -477.721900
PC19 -23639.312929   4816.266891 -13968.906254   -913.704011
PC20 -26945.187065  -6885.449626   2035.210282   -392.179143
PC21  14176.305543  15542.487100 -18335.500859   -963.957789
PC22  -6515.533585  14483.952184 -22941.529229    -28.172880
PC23  13784.557663 -23239.649331  -6969.156805   -776.348871
PC24  17370.630210   3765.093604  21495.971920    935.218043
PC25  21616.822999 -14482.394577  10050.552354    382.576130
PC26   3236.095134  18856.005674  20309.105883   -281.613116
PC27 -10437.550850 -25736.397459   2770.187524    303.309466
PC28   1067.972949 -24938.635129 -12477.792820    232.097158
PC29 -13959.065800   8306.828613  22681.222619    272.290128
PC30 -17727.243559 -13010.715687  17182.684280    -62.207139
PC32 -14140.211741 -15471.982168  18430.285824   -608.297788
PC33  23701.757567  -4938.417676  13908.077221   -969.930351
PC34  17885.765771  11335.942158 -18181.004954    418.901763
PC35   -369.322628  24843.063656  12649.556014    379.625079
PC36 -21965.321334  13873.808601 -10179.392380     60.914655
PC37  -2621.515251 -19045.771110 -20210.025545   -963.453553
PC38 -25587.878680  28769.561515 -17289.275432    150.904542
PC39 -10872.202334  36741.019628 -17280.047803     -8.104590
PC40 -10602.043702  21056.122763  34959.409224    -66.927169
PC41   7493.876532 -14286.607442  22829.786382   -931.837452
PC42  26569.473742   7793.021497  -3593.174269   -442.782635
PC43  14505.715582  -7345.560210 -22695.268626     69.129225
PC44  11381.438189  25324.647383  -2648.880898    452.942279
PC45 -13927.852398  23173.356633   6953.218683    -81.770879
PC46 -17759.850000  -2941.350107 -21337.969197   -142.543229
PE02  28878.420822  -6274.548114   1544.866852    121.936024
PE03  21441.924121   1385.174607  20368.978323   -109.278817
PE04  -7042.517779  16365.916045 -23624.699614   -380.847732
PE05  22958.736085  17941.632836   5241.241673   4741.406954
PE07 -10726.027867 -24118.347476  13392.392583   -116.287285
PE08   7706.231310 -15674.870307  23901.249721   -259.882742
PE09  10731.168892  24060.047246 -13505.252052   -418.263086
PE10  -6711.346181  28776.786878  -1725.260200   -619.520194
PE11    406.705376  27139.411308 -11798.679726   2989.395271
PE12 -12172.454945  25907.837226   7477.817061  -1007.959540
PE13     50.806527 -27388.118947  11246.658558    -21.187940
PE14 -19118.601109 -11863.099325   6835.279003     15.597359
PE15  12399.071106 -25659.730947  -8026.247050    -98.887157
PE19 -22164.805186  -3548.305096 -19279.519717   -187.247024
PE21 -22573.308617  -6897.309858 -17867.451438   -590.878019
PE24   2383.900925  16754.943570  24266.931489   -724.573792
PE25  22272.651412   7163.003094  18131.430079      3.693369
PE26 -12559.167237 -12520.471456  23701.737368    434.692590
PE27  -2811.573597 -16619.475890 -24334.789312   -332.148998
PE30  18536.433140 -16375.400215 -16267.274895   -230.237917
PE31 -18380.326360  16433.341121  16382.557365    -21.652282
PE33 -17287.081256   8335.405194  22533.435047     10.821062
PE34  17286.319232  -8938.400382 -22311.236208   -107.402970
PE36  12124.579975  13073.947611 -23625.243698   -217.636144
PG02 -14091.223436  15339.848714  16795.125519   -448.116133
PG03 -21515.658088  12589.895514  -9135.511214    327.397072
PG04 -12561.936046   8705.937223 -21713.541351    345.789187
PG05  25596.992535  -4837.764486  -5596.092061   -170.255447
PG06   6955.845170  18738.756941 -17369.252787    307.157413
PG07  -4830.129509  25811.744358   1955.495867   -114.070653
PG08 -19443.403482    -39.317595  18171.007952    140.129335
PG09     20.406336  18327.268804 -19283.990522    171.442543
PG10  -8870.371080 -12575.341285  21894.920698    -12.759088
PG11  13798.220768   6360.744423 -21765.773794   -644.717539
PG12  22999.456149 -10762.914069  -7971.529522   -499.330596
PG13  20171.779938  10000.899385  14066.247231    645.195177
PG14   4478.753579  14888.642313  21565.621406    383.941315
PG15  19369.680122  -2346.571153  17612.590225    151.702071
PG16 -25308.966986  -1288.899735  -9021.710933   -309.091505
PG17  10566.231912  22050.365480  10592.422287    710.416518
PG18   5118.769892 -25849.251798   2353.977231   -599.695152
PG19  16902.609997  20735.626979    801.351385    472.500947
PG20  21378.775725   1647.714217 -15516.287636    379.058225
PG21 -15283.113599   9339.754929  19715.073878    125.571885
PG22  12349.405614  12117.336606  20495.318900     -3.947798
PG23   4830.118417 -16095.824945  20541.999294    208.476215
PG24  14555.911661 -13700.748369  16870.158226   -462.773059
PG25  14871.321481 -16041.218644 -15217.649409    494.404589
PG26 -17893.010239  -7742.849123 -18341.221681    162.520654
PG27 -22053.924654 -11153.190613   9995.593737    -20.422454
PG28  -6584.441966 -20717.002130 -15276.177237   -215.662142
PG29   3691.594661 -16675.783334 -20363.674599   -600.882294
PG30   2957.273527  23679.629483  11514.196240   -400.712513
PG31 -12352.162569 -11079.646319 -20869.887643   -227.977826
PG32 -14274.315663 -21083.812108   8126.495777   -618.363526
PJ02 -30151.714654  25285.569644  20307.665412     -4.441232
PJ03 -28422.047400  26233.438997  21855.371275      0.015648
PJ04      0.000000      0.000000      0.000000     50.373490
PR01 -17825.480786   2577.552668 -18047.960691     83.360472
PR02  -1728.189150  10867.920306 -22957.573667    -22.788754
PR03  15612.144117  13703.315975 -14712.499154     98.852996
PR04  23777.987217   9127.997455   1339.523107    233.371104
PR05  19283.355400   -360.755893  16700.132138    130.451694
PR07 -16298.029635 -13705.749336  14124.308086     80.887630
PR08 -23878.306601  -8892.261663  -1426.460932    -75.204386
PR09  12323.201424 -18487.485586 -12588.234045    182.719637
PR11 -15409.174863     54.076582 -20312.110703     26.990225
PR12 -20950.286823  13751.923265  -4769.187589     39.350970
PR13 -14415.484332  18238.258487  10487.016117    -46.665640
PR14   2595.596380  11894.904755  22423.218012     26.413000
PR15  16451.862656  -1108.942874  19483.019833     80.294502
PR16  20911.025887 -13731.803513   5088.850164     25.042606
PR17   6810.513920  23309.178327  -7864.333997     80.703761
PR18  10662.775461  10848.784951 -20449.424436    138.684584
PR19   9833.472656  -5056.910451 -22991.903867   -274.167687
PR20   2633.877885 -23069.798953 -10609.460607   -111.769802
PR21  -6567.409333 -23356.626193   7834.890742    -95.266601
PR22 -10874.296793  -9992.433575  20825.226770    115.082573
PR24  -1600.592234  23410.860859  10026.977377    -53.072312
PR25  -6070.295312 -23421.401033   8055.096305    -31.221020
PR26 -23758.637424  -9240.203613   -297.409257    -23.323977
EOF
